OBJECT_NAME,OBJECT_ID,EPOCH,MEAN_MOTION,ECCENTRICITY,INCLINATION,RA_OF_ASC_NODE,ARG_OF_PERICENTER,MEAN_ANOMALY,EPHEMERIS_TYPE,CLASSIFICATION_TYPE,NORAD_CAT_ID,ELEMENT_SET_NO,REV_AT_EPOCH,BSTAR,MEAN_MOTION_DOT,MEAN_MOTION_DDOT
STARLINK-6294,2023-094H,2025-07-25T09:13:08.768928,15.02533716,.0001116,43.0026,185.7564,282.0650,78.0068,0,U,57225,999,11292,.8895E-5,-.83E-6,0
STARLINK-6350,2023-094J,2025-07-25T05:32:55.279968,15.02533624,.0001347,43.0036,186.3329,279.2397,80.8293,0,U,57226,999,11290,.44275E-5,-.144E-5,0
STARLINK-5996,2023-094K,2025-07-26T00:48:02.964096,15.02535350,.0001336,43.0025,182.0326,286.7912,73.2784,0,U,57227,999,11320,.50124E-4,.473E-5,0
STARLINK-6230,2023-094L,2025-07-25T05:28:07.372704,15.02535162,.0001063,43.0026,186.3075,277.4402,82.6319,0,U,57228,999,11290,.17742E-4,.36E-6,0
STARLINK-6233,2023-094M,2025-07-26T02:22:10.735104,15.02536290,.0001327,43.0019,181.6601,283.5693,76.5001,0,U,57229,999,11321,.2336E-4,.112E-5,0
STARLINK-6250,2023-094N,2025-07-25T10:07:19.010784,15.02537977,.0000953,43.0024,185.1814,279.2738,80.7997,0,U,57230,999,11293,-.58962E-5,-.283E-5,0
STARLINK-5840,2023-094P,2025-07-24T23:59:23.928000,15.02537027,.0001176,43.0029,187.1740,295.9267,64.1454,0,U,57231,999,11287,.82015E-4,.904E-5,0
STARLINK-5872,2023-094Q,2025-07-25T23:53:42.484704,15.02533893,.0000988,43.0018,181.7432,277.4728,82.6002,0,U,57232,999,11326,-.27252E-4,-.572E-5,0
STARLINK-5866,2023-094R,2025-07-25T00:08:58.329888,15.02538636,.0001281,43.0029,187.2260,280.2369,79.8329,0,U,57233,999,11287,-.26275E-4,-.559E-5,0
STARLINK-6368,2023-094S,2025-07-26T04:37:41.697408,15.02534628,.0001128,43.0028,180.6436,273.0003,87.0710,0,U,57234,999,11323,.67404E-4,.707E-5,0
STARLINK-6360,2023-094T,2025-07-25T04:59:21.684768,15.02540563,.0001261,43.0027,186.1581,268.6801,91.3897,0,U,57235,999,11308,.87385E-4,.977E-5,0
STARLINK-6315,2023-094U,2025-07-25T06:27:38.027232,15.02535436,.000111,43.0014,173.6158,289.2727,70.7995,0,U,57236,999,11305,.18165E-4,.42E-6,0
STARLINK-6365,2023-094V,2025-07-25T22:24:22.367808,15.02535876,.0001141,43.0019,182.1433,276.1915,83.8797,0,U,57237,999,11319,.26131E-4,.149E-5,0
STARLINK-6334,2023-094W,2025-07-25T06:16:26.919552,15.02533446,.0001071,43.0022,173.5545,273.1389,86.9331,0,U,57238,999,11305,-.17247E-4,-.436E-5,0
STARLINK-6330,2023-094X,2025-07-26T04:36:06.056928,15.02532350,.0000795,43.0028,180.6382,260.4179,99.6573,0,U,57239,999,11323,.39382E-5,-.15E-5,0
STARLINK-6351,2023-094Y,2025-07-25T04:27:56.128320,15.02539217,.0001105,43.0030,173.8483,286.0070,74.0651,0,U,57240,999,11304,.70433E-4,.748E-5,0
STARLINK-6349,2023-094Z,2025-07-26T01:31:35.268096,15.02527296,.0001083,43.0021,169.2567,272.6338,87.4380,0,U,57241,999,11335,-.39575E-4,-.738E-5,0
STARLINK-6306,2023-094AA,2025-07-25T22:15:19.534752,15.02532926,.0001014,43.0025,169.9517,278.6357,81.4370,0,U,57242,999,11315,.2059E-4,.75E-6,0
STARLINK-6346,2023-094AB,2025-07-26T04:41:25.891584,15.02535634,.0001097,43.0026,168.5231,274.6211,85.4506,0,U,57243,999,11337,.56964E-4,.566E-5,0
STARLINK-5610,2023-094AC,2025-07-25T09:18:18.509472,15.02535232,.0001107,43.0025,172.7821,274.6247,85.4469,0,U,57244,999,11307,.34468E-4,.262E-5,0
STARLINK-5587,2023-094AD,2025-07-25T22:08:56.026752,15.02532734,.000112,43.0025,169.9165,276.2059,83.8656,0,U,57245,999,11333,-.14965E-4,-.406E-5,0
STARLINK-5049,2023-094AE,2025-07-25T08:41:32.856576,15.02535827,.0001006,43.0024,172.5863,277.7401,82.3327,0,U,57246,999,11307,.53168E-4,.515E-5,0
STARLINK-5039,2023-094AF,2025-07-26T04:22:15.174048,15.02535922,.0001045,43.0035,168.4208,273.6852,86.3871,0,U,57247,999,11337,.21249E-5,-.175E-5,0
STARLINK-5514,2023-094AG,2025-07-25T04:21:32.263488,15.02532562,.0001191,43.0031,173.8155,275.7344,84.3363,0,U,57248,999,11322,.31436E-4,.221E-5,0
STARLINK-5517,2023-094AH,2025-07-26T04:14:15.017280,15.02534405,.0001164,43.0028,168.3237,280.9399,79.1312,0,U,57249,999,11337,.23615E-4,.115E-5,0
STARLINK-5488,2023-094AJ,2025-07-25T07:15:24.961536,15.02541312,.0001032,43.0032,173.0000,280.4902,79.5824,0,U,57250,999,11306,-.35697E-4,-.686E-5,0
STARLINK-5513,2023-094AK,2025-07-25T05:49:16.410720,15.02533573,.0001128,43.0020,173.4118,280.6177,79.4538,0,U,57251,999,11305,.7422E-5,-.103E-5,0
STARLINK-5511,2023-094AL,2025-07-25T07:04:13.774368,15.02539910,.0001055,43.0030,172.9435,287.3375,72.7351,0,U,57252,999,11306,.43202E-5,-.145E-5,0
STARLINK-5516,2023-094AM,2025-07-26T04:07:52.076928,15.02534369,.0001146,43.0028,168.3465,282.0035,78.0679,0,U,57253,999,11337,.22519E-4,.101E-5,0
STARLINK-5490,2023-094AN,2025-07-25T06:56:13.969248,15.02534833,.0001149,43.0032,172.9008,282.2804,77.7910,0,U,57254,999,11306,-.39197E-5,-.257E-5,0
