STARLINK-6294           
1 57225U 23094H   25206.38412927 -.00000083  00000+0  88950-5 0  9996
2 57225  43.0026 185.7564 0001116 282.0650  78.0068 15.02533716112923
STARLINK-6350           
1 57226U 23094J   25206.23119537 -.00000144  00000+0  44275-5 0  9992
2 57226  43.0036 186.3329 0001347 279.2397  80.8293 15.02533624112900
STARLINK-5996           
1 57227U 23094K   25207.03336764  .00000473  00000+0  50124-4 0  9998
2 57227  43.0025 182.0326 0001336 286.7912  73.2784 15.02535350113206
STARLINK-6230           
1 57228U 23094L   25206.22786311  .00000036  00000+0  17742-4 0  9990
2 57228  43.0026 186.3075 0001063 277.4402  82.6319 15.02535162112909
STARLINK-6233           
1 57229U 23094M   25207.09873536  .00000112  00000+0  23360-4 0  9991
2 57229  43.0019 181.6601 0001327 283.5693  76.5001 15.02536290113216
STARLINK-6250           
1 57230U 23094N   25206.42174781 -.00000283  00000+0 -58962-5 0  9993
2 57230  43.0024 185.1814 0000953 279.2738  80.7997 15.02537977112937
STARLINK-5840           
1 57231U 23094P   25205.99958250  .00000904  00000+0  82015-4 0  9999
2 57231  43.0029 187.1740 0001176 295.9267  64.1454 15.02537027112876
STARLINK-5872           
1 57232U 23094Q   25206.99563061 -.00000572  00000+0 -27252-4 0  9998
2 57232  43.0018 181.7432 0000988 277.4728  82.6002 15.02533893113265
STARLINK-5866           
1 57233U 23094R   25206.00623067 -.00000559  00000+0 -26275-4 0  9993
2 57233  43.0029 187.2260 0001281 280.2369  79.8329 15.02538636112874
STARLINK-6368           
1 57234U 23094S   25207.19284372  .00000707  00000+0  67404-4 0  9999
2 57234  43.0028 180.6436 0001128 273.0003  87.0710 15.02534628113234
STARLINK-6360           
1 57235U 23094T   25206.20788987  .00000977  00000+0  87385-4 0  9991
2 57235  43.0027 186.1581 0001261 268.6801  91.3897 15.02540563113082
STARLINK-6315           
1 57236U 23094U   25206.26919013  .00000042  00000+0  18165-4 0  9997
2 57236  43.0014 173.6158 0001110 289.2727  70.7995 15.02535436113059
STARLINK-6365           
1 57237U 23094V   25206.93359222  .00000149  00000+0  26131-4 0  9992
2 57237  43.0019 182.1433 0001141 276.1915  83.8797 15.02535876113192
STARLINK-6334           
1 57238U 23094W   25206.26142268 -.00000436  00000+0 -17247-4 0  9998
2 57238  43.0022 173.5545 0001071 273.1389  86.9331 15.02533446113053
STARLINK-6330           
1 57239U 23094X   25207.19173677 -.00000150  00000+0  39382-5 0  9997
2 57239  43.0028 180.6382 0000795 260.4179  99.6573 15.02532350113238
STARLINK-6351           
1 57240U 23094Y   25206.18606630  .00000748  00000+0  70433-4 0  9990
2 57240  43.0030 173.8483 0001105 286.0070  74.0651 15.02539217113041
STARLINK-6349           
1 57241U 23094Z   25207.06360264 -.00000738  00000+0 -39575-4 0  9992
2 57241  43.0021 169.2567 0001083 272.6338  87.4380 15.02527296113352
STARLINK-6306           
1 57242U 23094AA  25206.92730943  .00000075  00000+0  20590-4 0  9991
2 57242  43.0025 169.9517 0001014 278.6357  81.4370 15.02532926113157
STARLINK-6346           
1 57243U 23094AB  25207.19543856  .00000566  00000+0  56964-4 0  9996
2 57243  43.0026 168.5231 0001097 274.6211  85.4506 15.02535634113371
STARLINK-5610           
1 57244U 23094AC  25206.38771423  .00000262  00000+0  34468-4 0  9998
2 57244  43.0025 172.7821 0001107 274.6247  85.4469 15.02535232113073
STARLINK-5587           
1 57245U 23094AD  25206.92287068 -.00000406  00000+0 -14965-4 0  9998
2 57245  43.0025 169.9165 0001120 276.2059  83.8656 15.02532734113330
STARLINK-5049           
1 57246U 23094AE  25206.36218584  .00000515  00000+0  53168-4 0  9991
2 57246  43.0024 172.5863 0001006 277.7401  82.3327 15.02535827113071
STARLINK-5039           
1 57247U 23094AF  25207.18212007 -.00000175  00000+0  21249-5 0  9996
2 57247  43.0035 168.4208 0001045 273.6852  86.3871 15.02535922113376
STARLINK-5514           
1 57248U 23094AG  25206.18162342  .00000221  00000+0  31436-4 0  9991
2 57248  43.0031 173.8155 0001191 275.7344  84.3363 15.02532562113220
STARLINK-5517           
1 57249U 23094AH  25207.17656270  .00000115  00000+0  23615-4 0  9992
2 57249  43.0028 168.3237 0001164 280.9399  79.1312 15.02534405113375
STARLINK-5488           
1 57250U 23094AJ  25206.30237224 -.00000686  00000+0 -35697-4 0  9990
2 57250  43.0032 173.0000 0001032 280.4902  79.5824 15.02541312113065
STARLINK-5513           
1 57251U 23094AK  25206.24255105 -.00000103  00000+0  74220-5 0  9991
2 57251  43.0020 173.4118 0001128 280.6177  79.4538 15.02533573113059
STARLINK-5511           
1 57252U 23094AL  25206.29460387 -.00000145  00000+0  43202-5 0  9999
2 57252  43.0030 172.9435 0001055 287.3375  72.7351 15.02539910113061
STARLINK-5516           
1 57253U 23094AM  25207.17213052  .00000101  00000+0  22519-4 0  9991
2 57253  43.0028 168.3465 0001146 282.0035  78.0679 15.02534369113376
STARLINK-5490           
1 57254U 23094AN  25206.28905057 -.00000257  00000+0 -39197-5 0  9991
2 57254  43.0032 172.9008 0001149 282.2804  77.7910 15.02534833113061
